{
  "type": "FeatureCollection",
  "features": [
    {
      "type": "Feature",
      "properties": {
        "name": "New Station 1 (Town_14)",
        "chargers": 4,
        "type": "new"
      },
      "geometry": {
        "type": "Point",
        "coordinates": [
          -104.61890019070023,
          58.84310085470413
        ]
      }
    },
    {
      "type": "Feature",
      "properties": {
        "name": "New Station 2 (Town_3)",
        "chargers": 4,
        "type": "new"
      },
      "geometry": {
        "type": "Point",
        "coordinates": [
          -109.81473955133778,
          56.7887983557565
        ]
      }
    }
  ]
}