{
"type": "FeatureCollection",
"name": "saskatchewan_population",
"crs": { "type": "name", "properties": { "name": "urn:ogc:def:crs:OGC:1.3:CRS84" } },
"features": [
{ "type": "Feature", "properties": { "city": "Regina", "lat": 50.4452, "lon": -104.6189, "population": 230000 }, "geometry": { "type": "Point", "coordinates": [ -104.6189, 50.4452 ] } },
{ "type": "Feature", "properties": { "city": "Saskatoon", "lat": 52.1332, "lon": -106.67, "population": 280000 }, "geometry": { "type": "Point", "coordinates": [ -106.67, 52.1332 ] } },
{ "type": "Feature", "properties": { "city": "Town_1", "lat": 51.926071459614874, "lon": -104.53601211637719, "population": 6187 }, "geometry": { "type": "Point", "coordinates": [ -104.536012116377194, 51.926071459614874 ] } },
{ "type": "Feature", "properties": { "city": "Town_2", "lat": 50.733991780504304, "lon": -105.88383277566361, "population": 8728 }, "geometry": { "type": "Point", "coordinates": [ -105.883832775663606, 50.733991780504304 ] } },
{ "type": "Feature", "properties": { "city": "Town_3", "lat": 56.788798355756498, "lon": -109.81473955133778, "population": 9714 }, "geometry": { "type": "Point", "coordinates": [ -109.81473955133778, 56.788798355756498 ] } },
{ "type": "Feature", "properties": { "city": "Town_4", "lat": 51.335730217461034, "lon": -108.3635752951361, "population": 2242 }, "geometry": { "type": "Point", "coordinates": [ -108.363575295136101, 51.335730217461034 ] } },
{ "type": "Feature", "properties": { "city": "Town_5", "lat": 51.287134647448354, "lon": -105.13610996271576, "population": 3266 }, "geometry": { "type": "Point", "coordinates": [ -105.136109962715764, 51.287134647448354 ] } },
{ "type": "Feature", "properties": { "city": "Town_6", "lat": 50.534432467172458, "lon": -107.37069816318304, "population": 3980 }, "geometry": { "type": "Point", "coordinates": [ -107.370698163183036, 50.534432467172458 ] } },
{ "type": "Feature", "properties": { "city": "Town_7", "lat": 51.67776394208952, "lon": -105.60065243568329, "population": 5385 }, "geometry": { "type": "Point", "coordinates": [ -105.600652435683287, 51.67776394208952 ] } },
{ "type": "Feature", "properties": { "city": "Town_8", "lat": 50.569675619079995, "lon": -104.78491029619713, "population": 2119 }, "geometry": { "type": "Point", "coordinates": [ -104.784910296197125, 50.569675619079995 ] } },
{ "type": "Feature", "properties": { "city": "Town_9", "lat": 51.923328305879998, "lon": -104.06873593385089, "population": 8179 }, "geometry": { "type": "Point", "coordinates": [ -104.068735933850888, 51.923328305879998 ] } },
{ "type": "Feature", "properties": { "city": "Town_10", "lat": 50.646508171009579, "lon": -104.63153394697568, "population": 4681 }, "geometry": { "type": "Point", "coordinates": [ -104.631533946975679, 50.646508171009579 ] } },
{ "type": "Feature", "properties": { "city": "Town_11", "lat": 51.242765365166903, "lon": -105.93122295776956, "population": 9138 }, "geometry": { "type": "Point", "coordinates": [ -105.931222957769563, 51.242765365166903 ] } },
{ "type": "Feature", "properties": { "city": "Town_12", "lat": 51.493783426530975, "lon": -105.37657784782118, "population": 5440 }, "geometry": { "type": "Point", "coordinates": [ -105.376577847821181, 51.493783426530975 ] } },
{ "type": "Feature", "properties": { "city": "Town_13", "lat": 50.777281683288294, "lon": -104.06083074447088, "population": 7863 }, "geometry": { "type": "Point", "coordinates": [ -104.060830744470877, 50.777281683288294 ] } },
{ "type": "Feature", "properties": { "city": "Town_14", "lat": 58.843100854704133, "lon": -104.61890019070023, "population": 9257 }, "geometry": { "type": "Point", "coordinates": [ -104.618900190700231, 58.843100854704133 ] } },
{ "type": "Feature", "properties": { "city": "Town_15", "lat": 50.793974293628715, "lon": -105.90954542217892, "population": 3590 }, "geometry": { "type": "Point", "coordinates": [ -105.909545422178923, 50.793974293628715 ] } },
{ "type": "Feature", "properties": { "city": "Town_16", "lat": 50.907023547660842, "lon": -104.34252498169614, "population": 3889 }, "geometry": { "type": "Point", "coordinates": [ -104.342524981696144, 50.907023547660842 ] } },
{ "type": "Feature", "properties": { "city": "Town_17", "lat": 51.314044124737372, "lon": -105.71815155005048, "population": 8120 }, "geometry": { "type": "Point", "coordinates": [ -105.718151550050479, 51.314044124737372 ] } },
{ "type": "Feature", "properties": { "city": "Town_18", "lat": 51.980330404900776, "lon": -104.45551046140669, "population": 2387 }, "geometry": { "type": "Point", "coordinates": [ -104.455510461406689, 51.980330404900776 ] } }
]
}
