{
"type": "FeatureCollection",
"name": "saskatchewan_highways",
"crs": { "type": "name", "properties": { "name": "urn:ogc:def:crs:OGC:1.3:CRS84" } },
"features": [
{ "type": "Feature", "properties": { "highway_id": 0 }, "geometry": { "type": "LineString", "coordinates": [ [ -104.6189, 50.4452 ], [ -105.0, 51.0 ], [ -106.0, 51.5 ], [ -106.67, 52.1332 ] ] } },
{ "type": "Feature", "properties": { "highway_id": 1 }, "geometry": { "type": "LineString", "coordinates": [ [ -105.0, 51.0 ], [ -106.0, 52.5 ], [ -105.5, 53.2 ] ] } },
{ "type": "Feature", "properties": { "highway_id": 2 }, "geometry": { "type": "LineString", "coordinates": [ [ -104.0, 49.5 ], [ -105.5, 50.0 ], [ -107.0, 49.8 ] ] } }
]
}
