{
"type": "FeatureCollection",
"name": "saskatchewan_roads_osm",
"crs": { "type": "name", "properties": { "name": "urn:ogc:def:crs:OGC:1.3:CRS84" } },
"features": [
{ "type": "Feature", "properties": { "highway_id": 0, "length": 240482.18379662794, "name": "Highway 1" }, "geometry": { "type": "LineString", "coordinates": [ [ -104.6189, 50.4452 ], [ -105.0, 51.0 ], [ -106.0, 51.5 ], [ -106.67, 52.1332 ] ] } },
{ "type": "Feature", "properties": { "highway_id": 1, "length": 265204.33453826257, "name": "Highway 2" }, "geometry": { "type": "LineString", "coordinates": [ [ -105.0, 51.0 ], [ -106.0, 52.5 ], [ -105.5, 53.2 ] ] } },
{ "type": "Feature", "properties": { "highway_id": 2, "length": 230972.05738910908, "name": "Highway 3" }, "geometry": { "type": "LineString", "coordinates": [ [ -104.0, 49.5 ], [ -105.5, 50.0 ], [ -107.0, 49.8 ] ] } }
]
}
