{
"type": "FeatureCollection",
"name": "saskatchewan_population_2021",
"crs": { "type": "name", "properties": { "name": "urn:ogc:def:crs:OGC:1.3:CRS84" } },
"features": [
{ "type": "Feature", "properties": { "city": "Saskatoon", "lat": 52.1332, "lon": -106.67, "population": 275942, "type": "official_city", "constraint_level": "official" }, "geometry": { "type": "Point", "coordinates": [ -106.67, 52.1332 ] } },
{ "type": "Feature", "properties": { "city": "Regina", "lat": 50.4452, "lon": -104.6189, "population": 226404, "type": "official_city", "constraint_level": "official" }, "geometry": { "type": "Point", "coordinates": [ -104.6189, 50.4452 ] } },
{ "type": "Feature", "properties": { "city": "Prince Albert", "lat": 53.2, "lon": -105.75, "population": 37751, "type": "official_city", "constraint_level": "official" }, "geometry": { "type": "Point", "coordinates": [ -105.75, 53.2 ] } },
{ "type": "Feature", "properties": { "city": "Moose Jaw", "lat": 50.4, "lon": -105.55, "population": 34990, "type": "official_city", "constraint_level": "official" }, "geometry": { "type": "Point", "coordinates": [ -105.55, 50.4 ] } },
{ "type": "Feature", "properties": { "city": "Yorkton", "lat": 51.2167, "lon": -102.4667, "population": 16343, "type": "official_city", "constraint_level": "official" }, "geometry": { "type": "Point", "coordinates": [ -102.4667, 51.2167 ] } },
{ "type": "Feature", "properties": { "city": "Swift Current", "lat": 50.2833, "lon": -107.8, "population": 16604, "type": "official_city", "constraint_level": "official" }, "geometry": { "type": "Point", "coordinates": [ -107.8, 50.2833 ] } },
{ "type": "Feature", "properties": { "city": "North Battleford", "lat": 52.7833, "lon": -108.3, "population": 14815, "type": "official_city", "constraint_level": "official" }, "geometry": { "type": "Point", "coordinates": [ -108.3, 52.7833 ] } },
{ "type": "Feature", "properties": { "city": "Rural_Point_1", "lat": 49.98178546674167, "lon": -105.64341081255769, "population": 20387, "type": "rural_generated", "constraint_level": "strict" }, "geometry": { "type": "Point", "coordinates": [ -105.64341081255769, 49.98178546674167 ] } },
{ "type": "Feature", "properties": { "city": "Rural_Point_2", "lat": 51.94127776624542, "lon": -105.6189852583294, "population": 20387, "type": "rural_generated", "constraint_level": "strict" }, "geometry": { "type": "Point", "coordinates": [ -105.618985258329403, 51.94127776624542 ] } },
{ "type": "Feature", "properties": { "city": "Rural_Point_3", "lat": 51.347947496606814, "lon": -105.22558199129266, "population": 20387, "type": "rural_generated", "constraint_level": "strict" }, "geometry": { "type": "Point", "coordinates": [ -105.225581991292657, 51.347947496606814 ] } },
{ "type": "Feature", "properties": { "city": "Rural_Point_4", "lat": 51.607432157310065, "lon": -106.11205904569339, "population": 20387, "type": "rural_generated", "constraint_level": "strict" }, "geometry": { "type": "Point", "coordinates": [ -106.112059045693385, 51.607432157310065 ] } },
{ "type": "Feature", "properties": { "city": "Rural_Point_5", "lat": 49.821759810501376, "lon": -106.84415372005037, "population": 20387, "type": "rural_generated", "constraint_level": "strict" }, "geometry": { "type": "Point", "coordinates": [ -106.844153720050372, 49.821759810501376 ] } },
{ "type": "Feature", "properties": { "city": "Rural_Point_6", "lat": 52.970498469320127, "lon": -105.6658673520875, "population": 20387, "type": "rural_generated", "constraint_level": "strict" }, "geometry": { "type": "Point", "coordinates": [ -105.665867352087503, 52.970498469320127 ] } },
{ "type": "Feature", "properties": { "city": "Rural_Point_7", "lat": 50.926365917432868, "lon": -104.94884793061166, "population": 20386, "type": "rural_generated", "constraint_level": "strict" }, "geometry": { "type": "Point", "coordinates": [ -104.948847930611663, 50.926365917432868 ] } },
{ "type": "Feature", "properties": { "city": "Rural_Point_8", "lat": 52.234356960137944, "lon": -105.81753406288409, "population": 20386, "type": "rural_generated", "constraint_level": "strict" }, "geometry": { "type": "Point", "coordinates": [ -105.817534062884093, 52.234356960137944 ] } },
{ "type": "Feature", "properties": { "city": "Rural_Point_9", "lat": 49.919725703770908, "lon": -106.12117210597806, "population": 20386, "type": "rural_generated", "constraint_level": "strict" }, "geometry": { "type": "Point", "coordinates": [ -106.121172105978061, 49.919725703770908 ] } },
{ "type": "Feature", "properties": { "city": "Rural_Point_10", "lat": 49.539666571449018, "lon": -104.11581039772, "population": 20386, "type": "rural_generated", "constraint_level": "strict" }, "geometry": { "type": "Point", "coordinates": [ -104.115810397719997, 49.539666571449018 ] } },
{ "type": "Feature", "properties": { "city": "Rural_Point_11", "lat": 52.720914549522142, "lon": -105.84408760636745, "population": 20386, "type": "rural_generated", "constraint_level": "strict" }, "geometry": { "type": "Point", "coordinates": [ -105.844087606367452, 52.720914549522142 ] } },
{ "type": "Feature", "properties": { "city": "Rural_Point_12", "lat": 51.838776110493662, "lon": -106.35558584086587, "population": 20386, "type": "rural_generated", "constraint_level": "strict" }, "geometry": { "type": "Point", "coordinates": [ -106.355585840865871, 51.838776110493662 ] } },
{ "type": "Feature", "properties": { "city": "Rural_Point_13", "lat": 51.652812536501763, "lon": -105.42631666691358, "population": 20386, "type": "rural_generated", "constraint_level": "strict" }, "geometry": { "type": "Point", "coordinates": [ -105.426316666913579, 51.652812536501763 ] } },
{ "type": "Feature", "properties": { "city": "Rural_Point_14", "lat": 49.786017470943236, "lon": -104.84710413630698, "population": 20386, "type": "rural_generated", "constraint_level": "strict" }, "geometry": { "type": "Point", "coordinates": [ -104.847104136306982, 49.786017470943236 ] } },
{ "type": "Feature", "properties": { "city": "Rural_Point_15", "lat": 49.910487461738498, "lon": -105.22480747146705, "population": 20386, "type": "rural_generated", "constraint_level": "strict" }, "geometry": { "type": "Point", "coordinates": [ -105.224807471467045, 49.910487461738498 ] } },
{ "type": "Feature", "properties": { "city": "Rural_Point_16", "lat": 51.381980348747454, "lon": -105.76042134504326, "population": 20386, "type": "rural_generated", "constraint_level": "strict" }, "geometry": { "type": "Point", "coordinates": [ -105.760421345043255, 51.381980348747454 ] } },
{ "type": "Feature", "properties": { "city": "Rural_Point_17", "lat": 50.652474423656479, "lon": -104.76012728132616, "population": 20386, "type": "rural_generated", "constraint_level": "strict" }, "geometry": { "type": "Point", "coordinates": [ -104.760127281326163, 50.652474423656479 ] } },
{ "type": "Feature", "properties": { "city": "Rural_Point_18", "lat": 49.65631237132709, "lon": -104.45944802157209, "population": 20386, "type": "rural_generated", "constraint_level": "moderate" }, "geometry": { "type": "Point", "coordinates": [ -104.459448021572086, 49.65631237132709 ] } },
{ "type": "Feature", "properties": { "city": "Rural_Point_19", "lat": 52.491447272869564, "lon": -105.99408751238423, "population": 20386, "type": "rural_generated", "constraint_level": "moderate" }, "geometry": { "type": "Point", "coordinates": [ -105.994087512384226, 52.491447272869564 ] } },
{ "type": "Feature", "properties": { "city": "Rural_Point_20", "lat": 51.106942838582476, "lon": -105.21063740238834, "population": 20386, "type": "rural_generated", "constraint_level": "moderate" }, "geometry": { "type": "Point", "coordinates": [ -105.210637402388343, 51.106942838582476 ] } },
{ "type": "Feature", "properties": { "city": "Rural_Point_21", "lat": 49.869021796575964, "lon": -106.49986787664564, "population": 20386, "type": "rural_generated", "constraint_level": "moderate" }, "geometry": { "type": "Point", "coordinates": [ -106.499867876645638, 49.869021796575964 ] } },
{ "type": "Feature", "properties": { "city": "Rural_Point_22", "lat": 51.22994368998863, "lon": -105.45505476951685, "population": 20386, "type": "rural_generated", "constraint_level": "relaxed" }, "geometry": { "type": "Point", "coordinates": [ -105.455054769516849, 51.22994368998863 ] } },
{ "type": "Feature", "properties": { "city": "Rural_Point_23", "lat": 52.017157325062705, "lon": -106.54546964902168, "population": 20386, "type": "rural_generated", "constraint_level": "relaxed" }, "geometry": { "type": "Point", "coordinates": [ -106.545469649021683, 52.017157325062705 ] } },
{ "type": "Feature", "properties": { "city": "Rural_Point_24", "lat": 53.175250940425187, "lon": -105.51797982921282, "population": 20386, "type": "rural_generated", "constraint_level": "relaxed" }, "geometry": { "type": "Point", "coordinates": [ -105.51797982921282, 53.175250940425187 ] } },
{ "type": "Feature", "properties": { "city": "Rural_Point_25", "lat": 49.978678718583637, "lon": -105.43417489133321, "population": 20386, "type": "rural_generated", "constraint_level": "minimal" }, "geometry": { "type": "Point", "coordinates": [ -105.434174891333214, 49.978678718583637 ] } }
]
}
